{
  "type": "FeatureCollection",
  "features": [
    {
      "type": "Feature",
      "properties": {
        "norad_id": 66918,
        "name": "HULIANWANG DIGUI 14D",
        "group": "last-30-days",
        "lat": -48.06291375597415,
        "lon": 57.34262410079304,
        "alt_km": 873.9317248395546,
        "timestamp": "2025-12-10T11:33:52.173611+00:00",
        "meta_object_name": "HULIANWANG DIGUI 14D",
        "meta_object_id": "2025-285D",
        "meta_epoch": "2025-12-10T05:06:03.788640",
        "meta_mean_motion": 14.05703345,
        "meta_eccentricity": 0.0006456,
        "meta_inclination": 50.0042,
        "meta_ra_of_asc_node": 127.5783,
        "meta_arg_of_pericenter": 271.7014,
        "meta_mean_anomaly": 88.3151,
        "meta_ephemeris_type": 0,
        "meta_classification_type": "U",
        "meta_norad_cat_id": 66918,
        "meta_element_set_no": 999,
        "meta_rev_at_epoch": 55,
        "meta_bstar": 4.2398e-06,
        "meta_mean_motion_dot": -1.45e-06,
        "meta_mean_motion_ddot": 0,
        "tle_line1": "1 66918U 25285D   25344.21254385 -.00000145  00000+0  42398-5 0  9991",
        "tle_line2": "2 66918  50.0042 127.5783 0006456 271.7014  88.3151 14.05703345   557"
      },
      "geometry": {
        "type": "Point",
        "coordinates": [
          57.34262410079304,
          -48.06291375597415
        ]
      }
    },
    {
      "type": "Feature",
      "properties": {
        "norad_id": 66919,
        "name": "HULIANWANG DIGUI 14E",
        "group": "last-30-days",
        "lat": -47.99792369852107,
        "lon": 57.69214562544372,
        "alt_km": 872.7829736808753,
        "timestamp": "2025-12-10T11:33:52.173623+00:00",
        "meta_object_name": "HULIANWANG DIGUI 14E",
        "meta_object_id": "2025-285E",
        "meta_epoch": "2025-12-10T05:05:59.373600",
        "meta_mean_motion": 14.05714488,
        "meta_eccentricity": 0.0007862,
        "meta_inclination": 50.0056,
        "meta_ra_of_asc_node": 127.5808,
        "meta_arg_of_pericenter": 283.0794,
        "meta_mean_anomaly": 76.9234,
        "meta_ephemeris_type": 0,
        "meta_classification_type": "U",
        "meta_norad_cat_id": 66919,
        "meta_element_set_no": 999,
        "meta_rev_at_epoch": 55,
        "meta_bstar": -5.6807e-06,
        "meta_mean_motion_dot": -1.61e-06,
        "meta_mean_motion_ddot": 0,
        "tle_line1": "1 66919U 25285E   25344.21249275 -.00000161  00000+0 -56807-5 0  9993",
        "tle_line2": "2 66919  50.0056 127.5808 0007862 283.0794  76.9234 14.05714488   559"
      },
      "geometry": {
        "type": "Point",
        "coordinates": [
          57.69214562544372,
          -47.99792369852107
        ]
      }
    },
    {
      "type": "Feature",
      "properties": {
        "norad_id": 66920,
        "name": "HULIANWANG DIGUI 14F",
        "group": "last-30-days",
        "lat": -41.89716679221202,
        "lon": 77.4883110927377,
        "alt_km": 838.5660107083668,
        "timestamp": "2025-12-10T11:33:52.173635+00:00",
        "meta_object_name": "HULIANWANG DIGUI 14F",
        "meta_object_id": "2025-285F",
        "meta_epoch": "2025-12-09T20:33:41.276736",
        "meta_mean_motion": 14.11847534,
        "meta_eccentricity": 0.0030597,
        "meta_inclination": 50.004,
        "meta_ra_of_asc_node": 128.9355,
        "meta_arg_of_pericenter": 264.6131,
        "meta_mean_anomaly": 95.1286,
        "meta_ephemeris_type": 0,
        "meta_classification_type": "U",
        "meta_norad_cat_id": 66920,
        "meta_element_set_no": 999,
        "meta_rev_at_epoch": 50,
        "meta_bstar": 0.00026469,
        "meta_mean_motion_dot": 3.34e-06,
        "meta_mean_motion_ddot": 0,
        "tle_line1": "1 66920U 25285F   25343.85672774  .00000334  00000+0  26469-3 0  9997",
        "tle_line2": "2 66920  50.0040 128.9355 0030597 264.6131  95.1286 14.11847534   508"
      },
      "geometry": {
        "type": "Point",
        "coordinates": [
          77.4883110927377,
          -41.89716679221202
        ]
      }
    },
    {
      "type": "Feature",
      "properties": {
        "norad_id": 66921,
        "name": "HULIANWANG DIGUI 14G",
        "group": "last-30-days",
        "lat": -47.27373411456395,
        "lon": 61.15112535745593,
        "alt_km": 872.8192243537615,
        "timestamp": "2025-12-10T11:33:52.173647+00:00",
        "meta_object_name": "HULIANWANG DIGUI 14G",
        "meta_object_id": "2025-285G",
        "meta_epoch": "2025-12-10T05:05:20.636160",
        "meta_mean_motion": 14.05883408,
        "meta_eccentricity": 0.0006977,
        "meta_inclination": 50.0104,
        "meta_ra_of_asc_node": 127.5835,
        "meta_arg_of_pericenter": 286.6615,
        "meta_mean_anomaly": 73.3524,
        "meta_ephemeris_type": 0,
        "meta_classification_type": "U",
        "meta_norad_cat_id": 66921,
        "meta_element_set_no": 999,
        "meta_rev_at_epoch": 55,
        "meta_bstar": 0.00024257,
        "meta_mean_motion_dot": 2.47e-06,
        "meta_mean_motion_ddot": 0,
        "tle_line1": "1 66921U 25285G   25344.21204440  .00000247  00000+0  24257-3 0  9996",
        "tle_line2": "2 66921  50.0104 127.5835 0006977 286.6615  73.3524 14.05883408   555"
      },
      "geometry": {
        "type": "Point",
        "coordinates": [
          61.15112535745593,
          -47.27373411456395
        ]
      }
    },
    {
      "type": "Feature",
      "properties": {
        "norad_id": 66922,
        "name": "HULIANWANG DIGUI 14H",
        "group": "last-30-days",
        "lat": -46.712446682774285,
        "lon": 63.45807723972724,
        "alt_km": 872.4600070798097,
        "timestamp": "2025-12-10T11:33:52.173657+00:00",
        "meta_object_name": "HULIANWANG DIGUI 14H",
        "meta_object_id": "2025-285H",
        "meta_epoch": "2025-12-10T05:04:53.876352",
        "meta_mean_motion": 14.0599812,
        "meta_eccentricity": 0.0006933,
        "meta_inclination": 50.0078,
        "meta_ra_of_asc_node": 127.5783,
        "meta_arg_of_pericenter": 292.8348,
        "meta_mean_anomaly": 67.1825,
        "meta_ephemeris_type": 0,
        "meta_classification_type": "U",
        "meta_norad_cat_id": 66922,
        "meta_element_set_no": 999,
        "meta_rev_at_epoch": 55,
        "meta_bstar": -4.0309e-06,
        "meta_mean_motion_dot": -1.59e-06,
        "meta_mean_motion_ddot": 0,
        "tle_line1": "1 66922U 25285H   25344.21173468 -.00000159  00000+0 -40309-5 0  9994",
        "tle_line2": "2 66922  50.0078 127.5783 0006933 292.8348  67.1825 14.05998120   555"
      },
      "geometry": {
        "type": "Point",
        "coordinates": [
          63.45807723972724,
          -46.712446682774285
        ]
      }
    },
    {
      "type": "Feature",
      "properties": {
        "norad_id": 66923,
        "name": "HULIANWANG DIGUI 14J",
        "group": "last-30-days",
        "lat": -46.393272705130556,
        "lon": 64.6791772453626,
        "alt_km": 873.3506016253978,
        "timestamp": "2025-12-10T11:33:52.173667+00:00",
        "meta_object_name": "HULIANWANG DIGUI 14J",
        "meta_object_id": "2025-285J",
        "meta_epoch": "2025-12-10T05:04:39.849312",
        "meta_mean_motion": 14.06054815,
        "meta_eccentricity": 0.0005386,
        "meta_inclination": 50.0075,
        "meta_ra_of_asc_node": 127.5783,
        "meta_arg_of_pericenter": 287.7981,
        "meta_mean_anomaly": 72.2337,
        "meta_ephemeris_type": 0,
        "meta_classification_type": "U",
        "meta_norad_cat_id": 66923,
        "meta_element_set_no": 999,
        "meta_rev_at_epoch": 55,
        "meta_bstar": 0.00019275,
        "meta_mean_motion_dot": 1.66e-06,
        "meta_mean_motion_ddot": 0,
        "tle_line1": "1 66923U 25285J   25344.21157233  .00000166  00000+0  19275-3 0  9999",
        "tle_line2": "2 66923  50.0075 127.5783 0005386 287.7981  72.2337 14.06054815   550"
      },
      "geometry": {
        "type": "Point",
        "coordinates": [
          64.6791772453626,
          -46.393272705130556
        ]
      }
    },
    {
      "type": "Feature",
      "properties": {
        "norad_id": 66924,
        "name": "CZ-8A R/B",
        "group": "last-30-days",
        "lat": -46.07273027983393,
        "lon": 65.13223139787199,
        "alt_km": 878.2586748810554,
        "timestamp": "2025-12-10T11:33:52.173677+00:00",
        "meta_object_name": "CZ-8A R/B",
        "meta_object_id": "2025-285K",
        "meta_epoch": "2025-12-10T03:30:48.313728",
        "meta_mean_motion": 14.30500165,
        "meta_eccentricity": 0.0119314,
        "meta_inclination": 50.006,
        "meta_ra_of_asc_node": 127.1939,
        "meta_arg_of_pericenter": 97.5969,
        "meta_mean_anomaly": 263.8518,
        "meta_ephemeris_type": 0,
        "meta_classification_type": "U",
        "meta_norad_cat_id": 66924,
        "meta_element_set_no": 999,
        "meta_rev_at_epoch": 55,
        "meta_bstar": 9.1739e-05,
        "meta_mean_motion_dot": 9.3e-07,
        "meta_mean_motion_ddot": 0,
        "tle_line1": "1 66924U 25285K   25344.14639252  .00000093  00000+0  91739-4 0  9993",
        "tle_line2": "2 66924  50.0060 127.1939 0119314  97.5969 263.8518 14.30500165   554"
      },
      "geometry": {
        "type": "Point",
        "coordinates": [
          65.13223139787199,
          -46.07273027983393
        ]
      }
    }
  ]
}